{"type": "FeatureCollection", "features": [ {"type": "Feature", "properties": {"norad_id": 57401, "name": "TIANMU-1 09", "group": "weather", "lat": 12.131123768902105, "lon": 43.612751209553196, "alt_km": 479.4361700843365, "timestamp": "2025-12-22T05:49:03.125114+00:00", "meta": {"OBJECT_NAME": "TIANMU-1 09", "OBJECT_ID": "2023-101C", "EPOCH": "2025-12-21T20:20:07.190880", "MEAN_MOTION": 15.28206265, "ECCENTRICITY": 0.0006431, "INCLINATION": 97.2807, "RA_OF_ASC_NODE": 44.8014, "ARG_OF_PERICENTER": 58.8746, "MEAN_ANOMALY": 301.3124, "EPHEMERIS_TYPE": 0, "CLASSIFICATION_TYPE": "U", "NORAD_CAT_ID": 57401, "ELEMENT_SET_NO": 999, "REV_AT_EPOCH": 13454, "BSTAR": 0.00022491, "MEAN_MOTION_DOT": 6.113e-05, "MEAN_MOTION_DDOT": 0}, "tle": {"line1": "1 57401U 23101C   25355.84730545  .00006113  00000+0  22491-3 0  9991", "line2": "2 57401  97.2807  44.8014 0006431  58.8746 301.3124 15.28206265134543"}}, "geometry": {"type": "Point", "coordinates": [43.612751209553196, 12.131123768902105]}}, {"type": "Feature", "properties": {"norad_id": 57402, "name": "TIANMU-1 10", "group": "weather", "lat": -4.201525128539779, "lon": -134.4912615004032, "alt_km": 488.3039428115071, "timestamp": "2025-12-22T05:49:03.125124+00:00", "meta": {"OBJECT_NAME": "TIANMU-1 10", "OBJECT_ID": "2023-101D", "EPOCH": "2025-12-21T19:35:10.000608", "MEAN_MOTION": 15.28197488, "ECCENTRICITY": 0.0008151, "INCLINATION": 97.2887, "RA_OF_ASC_NODE": 45.6304, "ARG_OF_PERICENTER": 57.0608, "MEAN_ANOMALY": 303.1414, "EPHEMERIS_TYPE": 0, "CLASSIFICATION_TYPE": "U", "NORAD_CAT_ID": 57402, "ELEMENT_SET_NO": 999, "REV_AT_EPOCH": 13453, "BSTAR": 0.00023221, "MEAN_MOTION_DOT": 6.314e-05, "MEAN_MOTION_DDOT": 0}, "tle": {"line1": "1 57402U 23101D   25355.81608797  .00006314  00000+0  23221-3 0  9997", "line2": "2 57402  97.2887  45.6304 0008151  57.0608 303.1414 15.28197488134539"}}, "geometry": {"type": "Point", "coordinates": [-134.4912615004032, -4.201525128539779]}}, {"type": "Feature", "properties": {"norad_id": 57490, "name": "FENGYUN 3F", "group": "weather", "lat": -13.081635893992821, "lon": 66.42273862984695, "alt_km": 830.4887286417825, "timestamp": "2025-12-22T05:49:03.125137+00:00", "meta": {"OBJECT_NAME": "FENGYUN 3F", "OBJECT_ID": "2023-111A", "EPOCH": "2025-12-21T19:43:56.714016", "MEAN_MOTION": 14.19895824, "ECCENTRICITY": 7.78e-05, "INCLINATION": 98.7075, "RA_OF_ASC_NODE": 63.9686, "ARG_OF_PERICENTER": 114.4567, "MEAN_ANOMALY": 245.669, "EPHEMERIS_TYPE": 0, "CLASSIFICATION_TYPE": "U", "NORAD_CAT_ID": 57490, "ELEMENT_SET_NO": 999, "REV_AT_EPOCH": 12369, "BSTAR": 5.5378e-05, "MEAN_MOTION_DOT": 7.4e-07, "MEAN_MOTION_DDOT": 0}, "tle": {"line1": "1 57490U 23111A   25355.82218419  .00000074  00000+0  55378-4 0  9990", "line2": "2 57490  98.7075  63.9686 0000778 114.4567 245.6690 14.19895824123695"}}, "geometry": {"type": "Point", "coordinates": [66.42273862984695, -13.081635893992821]}}, {"type": "Feature", "properties": {"norad_id": 58584, "name": "ARKTIKA-M 2", "group": "weather", "lat": 10.65457336474977, "lon": -11.607096426328397, "alt_km": 9584.61878876057, "timestamp": "2025-12-22T05:49:03.125149+00:00", "meta": {"OBJECT_NAME": "ARKTIKA-M 2", "OBJECT_ID": "2023-198A", "EPOCH": "2025-12-20T07:20:06.590112", "MEAN_MOTION": 2.00602824, "ECCENTRICITY": 0.68654675, "INCLINATION": 63.225, "RA_OF_ASC_NODE": 174.0676, "ARG_OF_PERICENTER": 268.0739, "MEAN_ANOMALY": 18.8406, "EPHEMERIS_TYPE": 0, "CLASSIFICATION_TYPE": "U", "NORAD_CAT_ID": 58584, "ELEMENT_SET_NO": 999, "REV_AT_EPOCH": 1473, "BSTAR": 0, "MEAN_MOTION_DOT": 2.01e-06, "MEAN_MOTION_DDOT": 0}, "tle": {"line1": "1 58584U 23198A   25354.30563183  .00000201  00000+0  00000+0 0  9992", "line2": "2 58584  63.2250 174.0676 6865467 268.0739  18.8406  2.00602824 14734"}}, "geometry": {"type": "Point", "coordinates": [-11.607096426328397, 10.65457336474977]}}, {"type": "Feature", "properties": {"norad_id": 58645, "name": "TIANMU-1 11", "group": "weather", "lat": -63.138466017973165, "lon": -179.08573791062182, "alt_km": 494.2569809305005, "timestamp": "2025-12-22T05:49:03.125161+00:00", "meta": {"OBJECT_NAME": "TIANMU-1 11", "OBJECT_ID": "2023-205A", "EPOCH": "2025-12-21T19:17:57.411744", "MEAN_MOTION": 15.24700302, "ECCENTRICITY": 0.0007525, "INCLINATION": 97.3594, "RA_OF_ASC_NODE": 15.2682, "ARG_OF_PERICENTER": 271.7192, "MEAN_ANOMALY": 88.3184, "EPHEMERIS_TYPE": 0, "CLASSIFICATION_TYPE": "U", "NORAD_CAT_ID": 58645, "ELEMENT_SET_NO": 999, "REV_AT_EPOCH": 11047, "BSTAR": 0.00021166, "MEAN_MOTION_DOT": 5.167e-05, "MEAN_MOTION_DDOT": 0}, "tle": {"line1": "1 58645U 23205A   25355.80413671  .00005167  00000+0  21166-3 0  9997", "line2": "2 58645  97.3594  15.2682 0007525 271.7192  88.3184 15.24700302110478"}}, "geometry": {"type": "Point", "coordinates": [-179.08573791062182, -63.138466017973165]}}, {"type": "Feature", "properties": {"norad_id": 58646, "name": "TIANMU-1 12", "group": "weather", "lat": 82.28555776905202, "lon": -91.95166561214502, "alt_km": 488.22825110860595, "timestamp": "2025-12-22T05:49:03.125172+00:00", "meta": {"OBJECT_NAME": "TIANMU-1 12", "OBJECT_ID": "2023-205B", "EPOCH": "2025-12-21T19:57:45.222624", "MEAN_MOTION": 15.24585997, "ECCENTRICITY": 0.0005836, "INCLINATION": 97.3582, "RA_OF_ASC_NODE": 15.0977, "ARG_OF_PERICENTER": 250.0036, "MEAN_ANOMALY": 110.0574, "EPHEMERIS_TYPE": 0, "CLASSIFICATION_TYPE": "U", "NORAD_CAT_ID": 58646, "ELEMENT_SET_NO": 999, "REV_AT_EPOCH": 11046, "BSTAR": 0.00021063, "MEAN_MOTION_DOT": 5.122e-05, "MEAN_MOTION_DDOT": 0}, "tle": {"line1": "1 58646U 23205B   25355.83177341  .00005122  00000+0  21063-3 0  9999", "line2": "2 58646  97.3582  15.0977 0005836 250.0036 110.0574 15.24585997110467"}}, "geometry": {"type": "Point", "coordinates": [-91.95166561214502, 82.28555776905202]}}, {"type": "Feature", "properties": {"norad_id": 58647, "name": "TIANMU-1 13", "group": "weather", "lat": -82.63243871198588, "lon": 106.89232802755167, "alt_km": 496.1262889749005, "timestamp": "2025-12-22T05:49:03.125182+00:00", "meta": {"OBJECT_NAME": "TIANMU-1 13", "OBJECT_ID": "2023-205C", "EPOCH": "2025-12-21T19:11:10.986144", "MEAN_MOTION": 15.24628805, "ECCENTRICITY": 0.000638, "INCLINATION": 97.3609, "RA_OF_ASC_NODE": 15.2708, "ARG_OF_PERICENTER": 226.9891, "MEAN_ANOMALY": 133.0813, "EPHEMERIS_TYPE": 0, "CLASSIFICATION_TYPE": "U", "NORAD_CAT_ID": 58647, "ELEMENT_SET_NO": 999, "REV_AT_EPOCH": 11045, "BSTAR": 0.000217, "MEAN_MOTION_DOT": 5.287e-05, "MEAN_MOTION_DDOT": 0}, "tle": {"line1": "1 58647U 23205C   25355.79943271  .00005287  00000+0  21700-3 0  9998", "line2": "2 58647  97.3609  15.2708 0006380 226.9891 133.0813 15.24628805110454"}}, "geometry": {"type": "Point", "coordinates": [106.89232802755167, -82.63243871198588]}}, {"type": "Feature", "properties": {"norad_id": 58648, "name": "TIANMU-1 14", "group": "weather", "lat": 0.20674159339330422, "lon": 15.019217305015607, "alt_km": 498.0571559937498, "timestamp": "2025-12-22T05:49:03.125195+00:00", "meta": {"OBJECT_NAME": "TIANMU-1 14", "OBJECT_ID": "2023-205D", "EPOCH": "2025-12-21T20:21:55.928736", "MEAN_MOTION": 15.24612471, "ECCENTRICITY": 0.0007114, "INCLINATION": 97.3541, "RA_OF_ASC_NODE": 14.6593, "ARG_OF_PERICENTER": 233.1003, "MEAN_ANOMALY": 126.9583, "EPHEMERIS_TYPE": 0, "CLASSIFICATION_TYPE": "U", "NORAD_CAT_ID": 58648, "ELEMENT_SET_NO": 999, "REV_AT_EPOCH": 11046, "BSTAR": 0.00020896, "MEAN_MOTION_DOT": 5.086e-05, "MEAN_MOTION_DDOT": 0}, "tle": {"line1": "1 58648U 23205D   25355.84856399  .00005086  00000+0  20896-3 0  9991", "line2": "2 58648  97.3541  14.6593 0007114 233.1003 126.9583 15.24612471110464"}}, "geometry": {"type": "Point", "coordinates": [15.019217305015607, 0.20674159339330422]}}, {"type": "Feature", "properties": {"norad_id": 58660, "name": "TIANMU-1 19", "group": "weather", "lat": 10.107333123785091, "lon": 105.92713658940936, "alt_km": 486.3798332311908, "timestamp": "2025-12-22T05:49:03.125205+00:00", "meta": {"OBJECT_NAME": "TIANMU-1 19", "OBJECT_ID": "2023-208A", "EPOCH": "2025-12-21T20:20:34.436256", "MEAN_MOTION": 15.28002982, "ECCENTRICITY": 0.0004582, "INCLINATION": 97.4395, "RA_OF_ASC_NODE": 106.8678, "ARG_OF_PERICENTER": 213.0854, "MEAN_ANOMALY": 147.0099, "EPHEMERIS_TYPE": 0, "CLASSIFICATION_TYPE": "U", "NORAD_CAT_ID": 58660, "ELEMENT_SET_NO": 999, "REV_AT_EPOCH": 11021, "BSTAR": 0.00030219, "MEAN_MOTION_DOT": 8.184e-05, "MEAN_MOTION_DDOT": 0}, "tle": {"line1": "1 58660U 23208A   25355.84762079  .00008184  00000+0  30219-3 0  9991", "line2": "2 58660  97.4395 106.8678 0004582 213.0854 147.0099 15.28002982110214"}}, "geometry": {"type": "Point", "coordinates": [105.92713658940936, 10.107333123785091]}}, {"type": "Feature", "properties": {"norad_id": 58661, "name": "TIANMU-1 20", "group": "weather", "lat": 54.14385588271463, "lon": -61.87351225183829, "alt_km": 474.0316649337965, "timestamp": "2025-12-22T05:49:03.125215+00:00", "meta": {"OBJECT_NAME": "TIANMU-1 20", "OBJECT_ID": "2023-208B", "EPOCH": "2025-12-21T19:50:56.160096", "MEAN_MOTION": 15.29192286, "ECCENTRICITY": 0.0006624, "INCLINATION": 97.4333, "RA_OF_ASC_NODE": 107.3037, "ARG_OF_PERICENTER": 227.9478, "MEAN_ANOMALY": 132.1199, "EPHEMERIS_TYPE": 0, "CLASSIFICATION_TYPE": "U", "NORAD_CAT_ID": 58661, "ELEMENT_SET_NO": 999, "REV_AT_EPOCH": 11028, "BSTAR": 0.00027111, "MEAN_MOTION_DOT": 7.609e-05, "MEAN_MOTION_DDOT": 0}, "tle": {"line1": "1 58661U 23208B   25355.82703889  .00007609  00000+0  27111-3 0  9992", "line2": "2 58661  97.4333 107.3037 0006624 227.9478 132.1199 15.29192286110288"}}, "geometry": {"type": "Point", "coordinates": [-61.87351225183829, 54.14385588271463]}}]}